NORAD_CAT_ID,OBJECT_NAME,OBJECT_TYPE,EPOCH,MEAN_MOTION,ECCENTRICITY,INCLINATION,RA_OF_ASC_NODE,ARG_OF_PERICENTER,MEAN_ANOMALY,BSTAR,MEAN_MOTION_DOT,MEAN_MOTION_DDOT,TLE_LINE0,TLE_LINE1,TLE_LINE2,SEMIMAJOR_AXIS,PERIOD,APOGEE,PERIGEE,DECAYED
52092.0,STARLINK-3716,PAYLOAD,2022-09-07 14:00:01,15.08845572,0.0001541,53.2166,71.2511,61.7178,270.144,-0.00041158,-6.833e-05,0.0,0 STARLINK-3716,1 52092U 22029E   22250.58334491 -.00006833  00000-0 -41158-3 0  9995,2 52092  53.2166  71.2511 0001541  61.7178 270.1440 15.08845572  1308,6917.863,95.437,540.794,538.6619999999998,0.0
52092.0,STARLINK-3716,PAYLOAD,2022-09-07 22:00:00,15.08819117,0.000168,53.2165,69.7561,54.3104,289.1533,0.0028065,0.00044635,0.0,0 STARLINK-3716,1 52092U 22029E   22250.91667824  .00044635  00000-0  28065-2 0  9992,2 52092  53.2165  69.7561 0001680  54.3104 289.1533 15.08819117  1304,6917.944,95.439,540.971,538.6469999999998,0.0
52092.0,STARLINK-3716,PAYLOAD,2022-09-08 06:00:00,15.08846259,0.0001528,53.2164,68.258,59.0895,295.9689,0.00028641,4.274e-05,0.0,0 STARLINK-3716,1 52092U 22029E   22251.25001157  .00004274  00000-0  28641-3 0  9997,2 52092  53.2164  68.2580 0001528  59.0895 295.9689 15.08846259 27647,6917.861,95.437,540.783,538.669,0.0
52092.0,STARLINK-3716,PAYLOAD,2022-09-08 14:00:01,15.08869844,0.0001511,53.2166,66.7617,61.4453,305.2092,-0.0010379,-0.00016782,0.0,0 STARLINK-3716,1 52092U 22029E   22251.58334491 -.00016782  00000-0 -10379-2 0  9990,2 52092  53.2166  66.7617 0001511  61.4453 305.2092 15.08869844  1305,6917.7890000000025,95.436,540.6990000000002,538.609,0.0
52092.0,STARLINK-3716,PAYLOAD,2022-09-08 22:00:00,15.08840924,0.0001584,53.2163,65.2665,52.8379,325.4471,0.00036529,5.531e-05,0.0,0 STARLINK-3716,1 52092U 22029E   22251.91667824  .00005531  00000-0  36529-3 0  9990,2 52092  53.2163  65.2665 0001584  52.8379 325.4471 15.08840924  1303,6917.878000000002,95.437,540.8380000000002,538.6469999999998,0.0
52092.0,STARLINK-3716,PAYLOAD,2022-09-09 14:00:01,15.08873741,0.0001372,53.2164,62.2723,58.5199,342.9554,-0.0030013,-0.00047781,0.0,0 STARLINK-3716,1 52092U 22029E   22252.58334491 -.00047781  00000-0 -30013-2 0  9991,2 52092  53.2164  62.2723 0001372  58.5199 342.9554 15.08873741  1303,6917.776999999999,95.435,540.591,538.693,0.0
52092.0,STARLINK-3716,PAYLOAD,2022-09-09 22:00:00,15.08808592,0.0001445,53.2161,60.7767,49.4273,3.673,0.0026501999999999,0.00042106,0.0,0 STARLINK-3716,1 52092U 22029E   22252.91667824  .00042106  00000-0  26502-2 0  9999,2 52092  53.2161  60.7767 0001445  49.4273   3.6730 15.08808592  1303,6917.976,95.44,540.841,538.842,0.0
52092.0,STARLINK-3716,PAYLOAD,2022-09-10 06:00:02,15.08822862,0.0001266,53.216,59.2788,55.6559,9.0913,0.0014552,0.00022936,0.0,0 STARLINK-3716,1 52092U 22029E   22253.25002315  .00022936  00000-0  14552-2 0  9996,2 52092  53.2160  59.2788 0001266  55.6559   9.0913 15.08822862 27953,6917.933000000001,95.439,540.674,538.922,0.0
52092.0,STARLINK-3716,PAYLOAD,2022-09-10 14:00:01,15.08863712,0.0001347,53.2161,57.783,56.893,19.373,-0.0018512,-0.00029648,0.0,0 STARLINK-3716,1 52092U 22029E   22253.58334491 -.00029648  00000-0 -18512-2 0  9994,2 52092  53.2161  57.7830 0001347  56.8930  19.3730 15.08863712  1302,6917.808000000001,95.436,540.605,538.741,0.0
52092.0,STARLINK-3716,PAYLOAD,2022-09-10 22:00:00,15.08818597,0.0001516,53.2159,56.2873,50.45,37.4282,0.00098045,0.00015341,0.0,0 STARLINK-3716,1 52092U 22029E   22253.91667824  .00015341  00000-0  98045-3 0  9993,2 52092  53.2159  56.2873 0001516  50.4500  37.4282 15.08818597  1305,6917.946,95.439,540.86,538.762,0.0
52092.0,STARLINK-3716,PAYLOAD,2022-09-11 06:00:00,15.08813529,0.000139,53.2159,54.7895,58.2007,41.2663,0.0019397,0.00030695,0.0,0 STARLINK-3716,1 52092U 22029E   22254.25001157  .00030695  00000-0  19397-2 0  9993,2 52092  53.2159  54.7895 0001390  58.2007  41.2663 15.08813529 28103,6917.9609999999975,95.439,540.788,538.865,0.0
52092.0,STARLINK-3716,PAYLOAD,2022-09-11 14:00:01,15.08855356,0.0001501,53.2161,53.2936,58.8163,52.2286,-0.0013737999999999,-0.00022095,0.0,0 STARLINK-3716,1 52092U 22029E   22254.58334491 -.00022095  00000-0 -13738-2 0  9999,2 52092  53.2161  53.2936 0001501  58.8163  52.2286 15.08855356  1309,6917.833000000001,95.437,540.737,538.66,0.0
52092.0,STARLINK-3716,PAYLOAD,2022-09-11 22:00:00,15.08837602,0.0001643,53.216,51.7983,51.7032,70.9476,4.752600000000001e-05,4.68e-06,0.0,0 STARLINK-3716,1 52092U 22029E   22254.91667824  .00000468  00000-0  47526-4 0  9997,2 52092  53.2160  51.7983 0001643  51.7032  70.9476 15.08837602  1309,6917.888000000001,95.438,540.889,538.616,0.0
52092.0,STARLINK-3716,PAYLOAD,2022-09-12 06:00:00,15.0881169,0.0001548,53.2162,50.3001,59.1252,75.131,0.0025221,0.00040048,0.0,0 STARLINK-3716,1 52092U 22029E   22255.25001157  .00040048  00000-0  25221-2 0  9990,2 52092  53.2162  50.3001 0001548  59.1252  75.1310 15.08811690 28253,6917.967,95.439,540.903,538.761,0.0
52092.0,STARLINK-3716,PAYLOAD,2022-09-12 14:00:01,15.08857231,0.0001652,53.2164,48.8045,58.4668,87.3639,-0.0015741,-0.00025264,0.0,0 STARLINK-3716,1 52092U 22029E   22255.58334491 -.00025264  00000-0 -15741-2 0  9997,2 52092  53.2164  48.8045 0001652  58.4668  87.3639 15.08857231  1301,6917.828,95.436,540.836,538.55,0.0
52092.0,STARLINK-3716,PAYLOAD,2022-09-12 22:00:00,15.08829304,0.0001688,53.2163,47.309,49.8895,107.5509,0.00013998,1.94e-05,0.0,0 STARLINK-3716,1 52092U 22029E   22255.91667824  .00001940  00000-0  13998-3 0  9999,2 52092  53.2163  47.3090 0001688  49.8895 107.5509 15.08829304 28354,6917.913000000001,95.438,540.946,538.61,0.0
52092.0,STARLINK-3716,PAYLOAD,2022-09-13 14:00:01,15.08871391,0.0001616,53.2171,44.3155,53.309,127.3112,-0.0030816999999999,-0.00049042,0.0,0 STARLINK-3716,1 52092U 22029E   22256.58334491 -.00049042  00000-0 -30817-2 0  9999,2 52092  53.2171  44.3155 0001616  53.3090 127.3112 15.08871391  1309,6917.784000000002,95.436,540.7669999999998,538.5319999999998,0.0
52092.0,STARLINK-3716,PAYLOAD,2022-09-13 22:00:00,15.08830158,0.0001706,53.217,42.8199,46.4735,145.7524,-0.00056836,-9.32e-05,0.0,0 STARLINK-3716,1 52092U 22029E   22256.91667824 -.00009320  00000-0 -56836-3 0  9990,2 52092  53.2170  42.8199 0001706  46.4735 145.7524 15.08830158  1305,6917.91,95.438,540.956,538.595,0.0
52092.0,STARLINK-3716,PAYLOAD,2022-09-14 06:00:00,15.08824182,0.0001521999999999,53.2174,41.3219,51.9587,151.8579,0.0011822,0.00018569,0.0,0 STARLINK-3716,1 52092U 22029E   22257.25001157  .00018569  00000-0  11822-2 0  9997,2 52092  53.2174  41.3219 0001522  51.9587 151.8579 15.08824182 28552,6917.929,95.439,540.847,538.741,0.0
52092.0,STARLINK-3716,PAYLOAD,2022-09-14 14:00:01,15.08835599,0.000187,53.2174,39.8215,60.8842,154.4618,0.00013385,1.843e-05,0.0,0 STARLINK-3716,1 52092U 22029E   22257.58334491  .00001843  00000-0  13385-3 0  9997,2 52092  53.2174  39.8215 0001870  60.8842 154.4618 15.08835599 28602,6917.894,95.438,541.052,538.465,0.0
52092.0,STARLINK-3716,PAYLOAD,2022-09-14 22:00:00,15.08827601,0.0001806,53.2176,38.331,47.5247,179.4665,0.0017550999999999,0.00027745,0.0,0 STARLINK-3716,1 52092U 22029E   22257.91667824  .00027745  00000-0  17551-2 0  9990,2 52092  53.2176  38.3310 0001806  47.5247 179.4665 15.08827601  1306,6917.918000000002,95.438,541.033,538.534,0.0
52092.0,STARLINK-3716,PAYLOAD,2022-09-15 14:00:01,15.08845551,0.0001827,53.218,35.3379,52.955,197.239,-0.0011109,-0.00017927,0.0,0 STARLINK-3716,1 52092U 22029E   22258.58334491 -.00017927  00000-0 -11109-2 0  9991,2 52092  53.2180  35.3379 0001827  52.9550 197.2390 15.08845551  1300,6917.863,95.437,540.992,538.465,0.0
52092.0,STARLINK-3716,PAYLOAD,2022-09-15 19:15:17,15.08845736,0.0001529,53.2188,34.3544,56.1742,303.9396,9.2307e-05,1.182e-05,0.0,0 STARLINK-3716,1 52092U 22029E   22258.80228762  .00001182  00000-0  92307-4 0  9994,2 52092  53.2188  34.3544 0001529  56.1742 303.9396 15.08845736 28798,6917.863,95.437,540.786,538.67,0.0
52092.0,STARLINK-3716,PAYLOAD,2022-09-16 01:36:50,15.08838483,0.000161,53.2175,33.1646,48.6416,311.4714,7.0002e-05,8.26e-06,0.0,0 STARLINK-3716,1 52092U 22029E   22259.06725254  .00000826  00000-0  70002-4 0  9993,2 52092  53.2175  33.1646 0001610  48.6416 311.4714 15.08838483 28833,6917.885,95.438,540.864,538.636,0.0
52092.0,STARLINK-3716,PAYLOAD,2022-09-16 09:33:46,15.08834261,0.0001791,53.2177,31.6784,62.2896,297.8277,7.1328e-06,-1.75e-06,0.0,0 STARLINK-3716,1 52092U 22029E   22259.39845910 -.00000175  00000-0  71328-5 0  9992,2 52092  53.2177  31.6784 0001791  62.2896 297.8277 15.08834261 28881,6917.898,95.438,541.002,538.524,0.0
52092.0,STARLINK-3716,PAYLOAD,2022-09-16 19:06:05,15.08831923,0.0001748,53.2185,29.8955,59.9179,300.1986,2.2708e-06,-2.52e-06,0.0,0 STARLINK-3716,1 52092U 22029E   22259.79590201 -.00000252  00000-0  22708-5 0  9990,2 52092  53.2185  29.8955 0001748  59.9179 300.1986 15.08831923 28942,6917.905,95.438,540.979,538.561,0.0
52092.0,STARLINK-3716,PAYLOAD,2022-09-17 12:35:21,15.08828823,0.000164,53.2185,26.6234,53.5287,306.5856,-6.8623e-05,-1.3800000000000008e-05,0.0,0 STARLINK-3716,1 52092U 22029E   22260.52455183 -.00001380  00000-0 -68623-4 0  9991,2 52092  53.2185  26.6234 0001640  53.5287 306.5856 15.08828823 29052,6917.915,95.438,540.914,538.645,0.0
52092.0,STARLINK-3716,PAYLOAD,2022-09-17 17:21:30,15.08833393,0.000166,53.2186,25.7309,49.3681,310.7456,-2.5319e-05,-6.91e-06,0.0,0 STARLINK-3716,1 52092U 22029E   22260.72326955 -.00000691  00000-0 -25319-4 0  9996,2 52092  53.2186  25.7309 0001660  49.3681 310.7456 15.08833393 29083,6917.901,95.438,540.914,538.617,0.0
52092.0,STARLINK-3716,PAYLOAD,2022-09-18 12:26:08,15.08839712,0.0002387999999999,53.2188,22.1624,57.4847,302.6375,-9.1422e-05,-1.743e-05,0.0,0 STARLINK-3716,1 52092U 22029E   22261.51815328 -.00001743  00000-0 -91422-4 0  9998,2 52092  53.2188  22.1624 0002388  57.4847 302.6375 15.08839712 29203,6917.880999999999,95.438,541.398,538.094,0.0
